[{"OBJECT_NAME":"YAM-7","OBJECT_ID":"2024-149AN","EPOCH":"2026-03-09T17:13:55.117920","MEAN_MOTION":15.30304554,"ECCENTRICITY":0.00019733,"INCLINATION":97.3828,"RA_OF_ASC_NODE":149.4631,"ARG_OF_PERICENTER":296.5121,"MEAN_ANOMALY":63.5918,"EPHEMERIS_TYPE":0,"CLASSIFICATION_TYPE":"U","NORAD_CAT_ID":60504,"ELEMENT_SET_NO":999,"REV_AT_EPOCH":8683,"BSTAR":0.00030984439,"MEAN_MOTION_DOT":9.009e-5,"MEAN_MOTION_DDOT":0},{"OBJECT_NAME":"STARLINK-32709","OBJECT_ID":"2024-251H","EPOCH":"2026-03-09T22:45:15.954048","MEAN_MOTION":15.30221804,"ECCENTRICITY":9.015e-5,"INCLINATION":53.1597,"RA_OF_ASC_NODE":334.4134,"ARG_OF_PERICENTER":149.5442,"MEAN_ANOMALY":210.5612,"EPHEMERIS_TYPE":0,"CLASSIFICATION_TYPE":"U","NORAD_CAT_ID":62439,"ELEMENT_SET_NO":999,"REV_AT_EPOCH":6798,"BSTAR":0.0015049938,"MEAN_MOTION_DOT":0.00044512,"MEAN_MOTION_DDOT":0}]
